[{"OBJECT_NAME":"ONEWEB-0342","OBJECT_ID":"2021-083Y","EPOCH":"2025-11-28T05:11:52.302048","MEAN_MOTION":13.20768869,"ECCENTRICITY":0.0001977,"INCLINATION":87.9195,"RA_OF_ASC_NODE":314.5139,"ARG_OF_PERICENTER":85.0039,"MEAN_ANOMALY":275.132,"EPHEMERIS_TYPE":0,"CLASSIFICATION_TYPE":"U","NORAD_CAT_ID":49208,"ELEMENT_SET_NO":999,"REV_AT_EPOCH":21025,"BSTAR":0.00011462,"MEAN_MOTION_DOT":6.0e-7,"MEAN_MOTION_DDOT":0},{"OBJECT_NAME":"ONEWEB-0343","OBJECT_ID":"2021-083Z","EPOCH":"2025-11-28T01:49:46.666848","MEAN_MOTION":13.18683411,"ECCENTRICITY":0.0001876,"INCLINATION":87.92,"RA_OF_ASC_NODE":15.3996,"ARG_OF_PERICENTER":79.4521,"MEAN_ANOMALY":280.6823,"EPHEMERIS_TYPE":0,"CLASSIFICATION_TYPE":"U","NORAD_CAT_ID":49209,"ELEMENT_SET_NO":999,"REV_AT_EPOCH":20353,"BSTAR":0.00010115,"MEAN_MOTION_DOT":5.3e-7,"MEAN_MOTION_DDOT":0},{"OBJECT_NAME":"ONEWEB-0344","OBJECT_ID":"2021-083AA","EPOCH":"2025-11-28T02:05:32.599968","MEAN_MOTION":13.13469263,"ECCENTRICITY":0.0001475,"INCLINATION":87.898,"RA_OF_ASC_NODE":0.2383,"ARG_OF_PERICENTER":84.2696,"MEAN_ANOMALY":275.8601,"EPHEMERIS_TYPE":0,"CLASSIFICATION_TYPE":"U","NORAD_CAT_ID":49210,"ELEMENT_SET_NO":999,"REV_AT_EPOCH":20449,"BSTAR":0.00049215,"MEAN_MOTION_DOT":1.92e-6,"MEAN_MOTION_DDOT":0},{"OBJECT_NAME":"ONEWEB-0345","OBJECT_ID":"2021-083AB","EPOCH":"2025-11-28T01:53:21.723360","MEAN_MOTION":13.13470073,"ECCENTRICITY":0.0001579,"INCLINATION":87.8988,"RA_OF_ASC_NODE":0.1986,"ARG_OF_PERICENTER":82.6897,"MEAN_ANOMALY":277.4412,"EPHEMERIS_TYPE":0,"CLASSIFICATION_TYPE":"U","NORAD_CAT_ID":49211,"ELEMENT_SET_NO":999,"REV_AT_EPOCH":20450,"BSTAR":0.00089796,"MEAN_MOTION_DOT":3.41e-6,"MEAN_MOTION_DDOT":0},{"OBJECT_NAME":"ONEWEB-0346","OBJECT_ID":"2021-083AC","EPOCH":"2025-11-28T01:45:02.657088","MEAN_MOTION":13.1868568,"ECCENTRICITY":0.0001585,"INCLINATION":87.9193,"RA_OF_ASC_NODE":15.4163,"ARG_OF_PERICENTER":117.2553,"MEAN_ANOMALY":242.8741,"EPHEMERIS_TYPE":0,"CLASSIFICATION_TYPE":"U","NORAD_CAT_ID":49212,"ELEMENT_SET_NO":999,"REV_AT_EPOCH":20347,"BSTAR":7.9179e-5,"MEAN_MOTION_DOT":4.4e-7,"MEAN_MOTION_DDOT":0},{"OBJECT_NAME":"ONEWEB-0348","OBJECT_ID":"2021-083AD","EPOCH":"2025-11-28T04:58:13.777824","MEAN_MOTION":13.20771102,"ECCENTRICITY":0.000123,"INCLINATION":87.9182,"RA_OF_ASC_NODE":314.5231,"ARG_OF_PERICENTER":85.2783,"MEAN_ANOMALY":274.849,"EPHEMERIS_TYPE":0,"CLASSIFICATION_TYPE":"U","NORAD_CAT_ID":49213,"ELEMENT_SET_NO":999,"REV_AT_EPOCH":21028,"BSTAR":-0.00055438,"MEAN_MOTION_DOT":-2.12e-6,"MEAN_MOTION_DDOT":0},{"OBJECT_NAME":"ONEWEB-0350","OBJECT_ID":"2021-083AE","EPOCH":"2025-11-28T02:06:45.663264","MEAN_MOTION":13.13469104,"ECCENTRICITY":0.0001488,"INCLINATION":87.899,"RA_OF_ASC_NODE":0.1939,"ARG_OF_PERICENTER":88.2291,"MEAN_ANOMALY":271.9008,"EPHEMERIS_TYPE":0,"CLASSIFICATION_TYPE":"U","NORAD_CAT_ID":49214,"ELEMENT_SET_NO":999,"REV_AT_EPOCH":20453,"BSTAR":0.00037916,"MEAN_MOTION_DOT":1.51e-6,"MEAN_MOTION_DDOT":0},{"OBJECT_NAME":"ONEWEB-0351","OBJECT_ID":"2021-083AF","EPOCH":"2025-11-27T21:32:37.042080","MEAN_MOTION":13.20772261,"ECCENTRICITY":0.0002515,"INCLINATION":87.9191,"RA_OF_ASC_NODE":314.5801,"ARG_OF_PERICENTER":71.4338,"MEAN_ANOMALY":288.7068,"EPHEMERIS_TYPE":0,"CLASSIFICATION_TYPE":"U","NORAD_CAT_ID":49215,"ELEMENT_SET_NO":999,"REV_AT_EPOCH":21020,"BSTAR":7.0196e-5,"MEAN_MOTION_DOT":4.2e-7,"MEAN_MOTION_DDOT":0},{"OBJECT_NAME":"ONEWEB-0352","OBJECT_ID":"2021-083AG","EPOCH":"2025-11-28T01:38:44.382336","MEAN_MOTION":13.13469786,"ECCENTRICITY":0.0002121,"INCLINATION":87.8977,"RA_OF_ASC_NODE":0.2222,"ARG_OF_PERICENTER":85.2521,"MEAN_ANOMALY":274.885,"EPHEMERIS_TYPE":0,"CLASSIFICATION_TYPE":"U","NORAD_CAT_ID":49216,"ELEMENT_SET_NO":999,"REV_AT_EPOCH":20462,"BSTAR":0.00072241,"MEAN_MOTION_DOT":2.77e-6,"MEAN_MOTION_DDOT":0},{"OBJECT_NAME":"ONEWEB-0354","OBJECT_ID":"2021-083AH","EPOCH":"2025-11-27T16:41:53.113632","MEAN_MOTION":13.20772985,"ECCENTRICITY":0.00015517,"INCLINATION":87.9194,"RA_OF_ASC_NODE":314.6191,"ARG_OF_PERICENTER":81.7292,"MEAN_ANOMALY":278.4017,"EPHEMERIS_TYPE":0,"CLASSIFICATION_TYPE":"U","NORAD_CAT_ID":49217,"ELEMENT_SET_NO":999,"REV_AT_EPOCH":21021,"BSTAR":0.00017481662,"MEAN_MOTION_DOT":8.4e-7,"MEAN_MOTION_DDOT":0},{"OBJECT_NAME":"ONEWEB-0355","OBJECT_ID":"2021-083AJ","EPOCH":"2025-11-28T02:20:22.161408","MEAN_MOTION":13.13469986,"ECCENTRICITY":0.0001801,"INCLINATION":87.8982,"RA_OF_ASC_NODE":0.2292,"ARG_OF_PERICENTER":86.663,"MEAN_ANOMALY":273.4706,"EPHEMERIS_TYPE":0,"CLASSIFICATION_TYPE":"U","NORAD_CAT_ID":49218,"ELEMENT_SET_NO":999,"REV_AT_EPOCH":20450,"BSTAR":-0.00020058,"MEAN_MOTION_DOT":-6.0e-7,"MEAN_MOTION_DDOT":0},{"OBJECT_NAME":"ONEWEB-0357","OBJECT_ID":"2021-083AK","EPOCH":"2025-11-27T11:10:04.924992","MEAN_MOTION":13.20772675,"ECCENTRICITY":0.00018711,"INCLINATION":87.9192,"RA_OF_ASC_NODE":314.6616,"ARG_OF_PERICENTER":81.2227,"MEAN_ANOMALY":278.9118,"EPHEMERIS_TYPE":0,"CLASSIFICATION_TYPE":"U","NORAD_CAT_ID":49219,"ELEMENT_SET_NO":999,"REV_AT_EPOCH":21018,"BSTAR":0.0004145402,"MEAN_MOTION_DOT":1.82e-6,"MEAN_MOTION_DDOT":0},{"OBJECT_NAME":"ONEWEB-0332","OBJECT_ID":"2021-090A","EPOCH":"2025-11-28T00:56:38.544000","MEAN_MOTION":13.14502306,"ECCENTRICITY":0.000206,"INCLINATION":87.8977,"RA_OF_ASC_NODE":329.793,"ARG_OF_PERICENTER":89.9527,"MEAN_ANOMALY":270.1839,"EPHEMERIS_TYPE":0,"CLASSIFICATION_TYPE":"U","NORAD_CAT_ID":49279,"ELEMENT_SET_NO":999,"REV_AT_EPOCH":20115,"BSTAR":-0.00042165,"MEAN_MOTION_DOT":-1.44e-6,"MEAN_MOTION_DDOT":0},{"OBJECT_NAME":"ONEWEB-0347","OBJECT_ID":"2021-090B","EPOCH":"2025-11-28T05:07:21.406944","MEAN_MOTION":13.20772354,"ECCENTRICITY":0.0002054,"INCLINATION":87.9185,"RA_OF_ASC_NODE":314.5237,"ARG_OF_PERICENTER":92.8943,"MEAN_ANOMALY":267.2425,"EPHEMERIS_TYPE":0,"CLASSIFICATION_TYPE":"U","NORAD_CAT_ID":49280,"ELEMENT_SET_NO":999,"REV_AT_EPOCH":20451,"BSTAR":-0.00013154,"MEAN_MOTION_DOT":-4.0e-7,"MEAN_MOTION_DDOT":0},{"OBJECT_NAME":"ONEWEB-0349","OBJECT_ID":"2021-090C","EPOCH":"2025-11-28T00:25:31.673280","MEAN_MOTION":13.20773528,"ECCENTRICITY":0.0001871,"INCLINATION":87.9183,"RA_OF_ASC_NODE":314.5618,"ARG_OF_PERICENTER":83.4553,"MEAN_ANOMALY":276.6793,"EPHEMERIS_TYPE":0,"CLASSIFICATION_TYPE":"U","NORAD_CAT_ID":49281,"ELEMENT_SET_NO":999,"REV_AT_EPOCH":20327,"BSTAR":-0.00016536,"MEAN_MOTION_DOT":-5.4e-7,"MEAN_MOTION_DDOT":0},{"OBJECT_NAME":"ONEWEB-0353","OBJECT_ID":"2021-090D","EPOCH":"2025-11-28T00:45:12.991104","MEAN_MOTION":13.14502992,"ECCENTRICITY":0.0002052,"INCLINATION":87.8988,"RA_OF_ASC_NODE":329.7784,"ARG_OF_PERICENTER":91.4509,"MEAN_ANOMALY":268.6856,"EPHEMERIS_TYPE":0,"CLASSIFICATION_TYPE":"U","NORAD_CAT_ID":49282,"ELEMENT_SET_NO":999,"REV_AT_EPOCH":20115,"BSTAR":-0.00062043,"MEAN_MOTION_DOT":-2.17e-6,"MEAN_MOTION_DDOT":0},{"OBJECT_NAME":"ONEWEB-0356","OBJECT_ID":"2021-090E","EPOCH":"2025-11-28T00:23:14.197920","MEAN_MOTION":13.2077339,"ECCENTRICITY":0.0001776,"INCLINATION":87.9187,"RA_OF_ASC_NODE":314.5537,"ARG_OF_PERICENTER":115.6891,"MEAN_ANOMALY":244.4426,"EPHEMERIS_TYPE":0,"CLASSIFICATION_TYPE":"U","NORAD_CAT_ID":49283,"ELEMENT_SET_NO":999,"REV_AT_EPOCH":20327,"BSTAR":-0.00033399,"MEAN_MOTION_DOT":-1.23e-6,"MEAN_MOTION_DDOT":0}]
