ONEWEB-0342             
1 49208U 21083Y   25332.21657757  .00000060  00000+0  11462-3 0  9994
2 49208  87.9195 314.5139 0001977  85.0039 275.1320 13.20768869210259
ONEWEB-0343             
1 49209U 21083Z   25332.07623457  .00000053  00000+0  10115-3 0  9995
2 49209  87.9200  15.3996 0001876  79.4521 280.6823 13.18683411203533
ONEWEB-0344             
1 49210U 21083AA  25332.08718287  .00000192  00000+0  49215-3 0  9991
2 49210  87.8980   0.2383 0001475  84.2696 275.8601 13.13469263204492
ONEWEB-0345             
1 49211U 21083AB  25332.07872365  .00000341  00000+0  89796-3 0  9993
2 49211  87.8988   0.1986 0001579  82.6897 277.4412 13.13470073204500
ONEWEB-0346             
1 49212U 21083AC  25332.07294742  .00000044  00000+0  79179-4 0  9996
2 49212  87.9193  15.4163 0001585 117.2553 242.8741 13.18685680203470
ONEWEB-0348             
1 49213U 21083AD  25332.20710391 -.00000212  00000+0 -55438-3 0  9995
2 49213  87.9182 314.5231 0001230  85.2783 274.8490 13.20771102210285
ONEWEB-0350             
1 49214U 21083AE  25332.08802851  .00000151  00000+0  37916-3 0  9996
2 49214  87.8990   0.1939 0001488  88.2291 271.9008 13.13469104204539
ONEWEB-0351             
1 49215U 21083AF  25331.89765095  .00000042  00000+0  70196-4 0  9990
2 49215  87.9191 314.5801 0002515  71.4338 288.7068 13.20772261210204
ONEWEB-0352             
1 49216U 21083AG  25332.06856924  .00000277  00000+0  72241-3 0  9995
2 49216  87.8977   0.2222 0002121  85.2521 274.8850 13.13469786204623
ONEWEB-0354             
1 49217U 21083AH  25331.69575363  .00000084  00000+0  17482-3 0  9991
2 49217  87.9194 314.6191 0001551  81.7292 278.4017 13.20772985210218
ONEWEB-0355             
1 49218U 21083AJ  25332.09747872 -.00000060  00000+0 -20058-3 0  9992
2 49218  87.8982   0.2292 0001801  86.6630 273.4706 13.13469986204502
ONEWEB-0357             
1 49219U 21083AK  25331.46533478  .00000182  00000+0  41454-3 0  9994
2 49219  87.9192 314.6616 0001871  81.2227 278.9118 13.20772675210187
ONEWEB-0332             
1 49279U 21090A   25332.03933500 -.00000144  00000+0 -42165-3 0  9992
2 49279  87.8977 329.7930 0002060  89.9527 270.1839 13.14502306201154
ONEWEB-0347             
1 49280U 21090B   25332.21344221 -.00000040  00000+0 -13154-3 0  9991
2 49280  87.9185 314.5237 0002054  92.8943 267.2425 13.20772354204518
ONEWEB-0349             
1 49281U 21090C   25332.01772770 -.00000054  00000+0 -16536-3 0  9996
2 49281  87.9183 314.5618 0001871  83.4553 276.6793 13.20773528203277
ONEWEB-0353             
1 49282U 21090D   25332.03140036 -.00000217  00000+0 -62043-3 0  9998
2 49282  87.8988 329.7784 0002052  91.4509 268.6856 13.14502992201158
ONEWEB-0356             
1 49283U 21090E   25332.01613655 -.00000123  00000+0 -33399-3 0  9997
2 49283  87.9187 314.5537 0001776 115.6891 244.4426 13.20773390203273
